{
  "type": "FeatureCollection",
  "features": [
    {
      "type": "Feature",
      "properties": {
        "norad_id": 34540,
        "name": "IRIDIUM 33 DEB",
        "group": "iridium-33-debris",
        "lat": -77.05401576125237,
        "lon": -68.9599996681971,
        "alt_km": 658.1528676306161,
        "timestamp": "2025-12-13T07:35:41.890372+00:00",
        "meta_object_name": "IRIDIUM 33 DEB",
        "meta_object_id": "1997-051JH",
        "meta_epoch": "2025-12-12T16:27:37.491840",
        "meta_mean_motion": 14.75322014,
        "meta_eccentricity": 0.00164195,
        "meta_inclination": 86.3102,
        "meta_ra_of_asc_node": 307.6317,
        "meta_arg_of_pericenter": 159.2955,
        "meta_mean_anomaly": 15.9185,
        "meta_ephemeris_type": 0,
        "meta_classification_type": "U",
        "meta_norad_cat_id": 34540,
        "meta_element_set_no": 999,
        "meta_rev_at_epoch": 89020,
        "meta_bstar": 0.0023425707,
        "meta_mean_motion_dot": 0.0001595,
        "meta_mean_motion_ddot": 0,
        "tle_line1": "1 34540U 97051JH  25346.68585060  .00015950  00000+0  23426-2 0  9994",
        "tle_line2": "2 34540  86.3102 307.6317 0016419 159.2955  15.9185 14.75322014890209"
      },
      "geometry": {
        "type": "Point",
        "coordinates": [
          -68.9599996681971,
          -77.05401576125237
        ]
      }
    },
    {
      "type": "Feature",
      "properties": {
        "norad_id": 34648,
        "name": "IRIDIUM 33 DEB",
        "group": "iridium-33-debris",
        "lat": -63.06859305367039,
        "lon": -85.42439042091178,
        "alt_km": 729.232187986644,
        "timestamp": "2025-12-13T07:35:41.890382+00:00",
        "meta_object_name": "IRIDIUM 33 DEB",
        "meta_object_id": "1997-051JZ",
        "meta_epoch": "2025-12-12T06:21:55.340640",
        "meta_mean_motion": 14.11481969,
        "meta_eccentricity": 0.01828059,
        "meta_inclination": 86.3902,
        "meta_ra_of_asc_node": 282.138,
        "meta_arg_of_pericenter": 300.3991,
        "meta_mean_anomaly": 57.9233,
        "meta_ephemeris_type": 0,
        "meta_classification_type": "U",
        "meta_norad_cat_id": 34648,
        "meta_element_set_no": 999,
        "meta_rev_at_epoch": 84954,
        "meta_bstar": 0.010984589,
        "meta_mean_motion_dot": 0.00023366,
        "meta_mean_motion_ddot": 0,
        "tle_line1": "1 34648U 97051JZ  25346.26522385  .00023366  00000+0  10985-1 0  9993",
        "tle_line2": "2 34648  86.3902 282.1380 0182805 300.3991  57.9233 14.11481969849541"
      },
      "geometry": {
        "type": "Point",
        "coordinates": [
          -85.42439042091178,
          -63.06859305367039
        ]
      }
    },
    {
      "type": "Feature",
      "properties": {
        "norad_id": 34651,
        "name": "IRIDIUM 33 DEB",
        "group": "iridium-33-debris",
        "lat": 23.929956964803207,
        "lon": 141.98507875749843,
        "alt_km": 907.1938241887292,
        "timestamp": "2025-12-13T07:35:41.890391+00:00",
        "meta_object_name": "IRIDIUM 33 DEB",
        "meta_object_id": "1997-051KC",
        "meta_epoch": "2025-12-12T09:35:00.604320",
        "meta_mean_motion": 14.25811069,
        "meta_eccentricity": 0.01420847,
        "meta_inclination": 86.2833,
        "meta_ra_of_asc_node": 140.7223,
        "meta_arg_of_pericenter": 205.011,
        "meta_mean_anomaly": 154.4154,
        "meta_ephemeris_type": 0,
        "meta_classification_type": "U",
        "meta_norad_cat_id": 34651,
        "meta_element_set_no": 999,
        "meta_rev_at_epoch": 85891,
        "meta_bstar": 0.0048807652,
        "meta_mean_motion_dot": 0.00012929,
        "meta_mean_motion_ddot": 0,
        "tle_line1": "1 34651U 97051KC  25346.39931255  .00012929  00000+0  48808-2 0  9990",
        "tle_line2": "2 34651  86.2833 140.7223 0142084 205.0110 154.4154 14.25811069858910"
      },
      "geometry": {
        "type": "Point",
        "coordinates": [
          141.98507875749843,
          23.929956964803207
        ]
      }
    },
    {
      "type": "Feature",
      "properties": {
        "norad_id": 34652,
        "name": "IRIDIUM 33 DEB",
        "group": "iridium-33-debris",
        "lat": 29.636808368247866,
        "lon": 157.65330912638925,
        "alt_km": 700.367996940603,
        "timestamp": "2025-12-13T07:35:41.890400+00:00",
        "meta_object_name": "IRIDIUM 33 DEB",
        "meta_object_id": "1997-051KD",
        "meta_epoch": "2025-12-11T23:57:08.973792",
        "meta_mean_motion": 14.62047586,
        "meta_eccentricity": 0.0025954,
        "meta_inclination": 86.3316,
        "meta_ra_of_asc_node": 340.3318,
        "meta_arg_of_pericenter": 300.945,
        "meta_mean_anomaly": 114.4446,
        "meta_ephemeris_type": 0,
        "meta_classification_type": "U",
        "meta_norad_cat_id": 34652,
        "meta_element_set_no": 999,
        "meta_rev_at_epoch": 88473,
        "meta_bstar": 0.0015132,
        "meta_mean_motion_dot": 7.652e-05,
        "meta_mean_motion_ddot": 0,
        "tle_line1": "1 34652U 97051KD  25345.99802053  .00007652  00000+0  15132-2 0  9990",
        "tle_line2": "2 34652  86.3316 340.3318 0025954 300.9450 114.4446 14.62047586884734"
      },
      "geometry": {
        "type": "Point",
        "coordinates": [
          157.65330912638925,
          29.636808368247866
        ]
      }
    },
    {
      "type": "Feature",
      "properties": {
        "norad_id": 34690,
        "name": "IRIDIUM 33 DEB",
        "group": "iridium-33-debris",
        "lat": -1.3914295505887755,
        "lon": 36.65240159116961,
        "alt_km": 705.5692809225739,
        "timestamp": "2025-12-13T07:35:41.890409+00:00",
        "meta_object_name": "IRIDIUM 33 DEB",
        "meta_object_id": "1997-051KM",
        "meta_epoch": "2025-12-12T21:56:50.444736",
        "meta_mean_motion": 14.55097314,
        "meta_eccentricity": 0.00108506,
        "meta_inclination": 86.3784,
        "meta_ra_of_asc_node": 36.9152,
        "meta_arg_of_pericenter": 29.0413,
        "meta_mean_anomaly": 25.3657,
        "meta_ephemeris_type": 0,
        "meta_classification_type": "U",
        "meta_norad_cat_id": 34690,
        "meta_element_set_no": 999,
        "meta_rev_at_epoch": 88097,
        "meta_bstar": 0.0006877799,
        "meta_mean_motion_dot": 2.989e-05,
        "meta_mean_motion_ddot": 0,
        "tle_line1": "1 34690U 97051KM  25346.91447274  .00002989  00000+0  68778-3 0  9998",
        "tle_line2": "2 34690  86.3784  36.9152 0010850  29.0413  25.3657 14.55097314880978"
      },
      "geometry": {
        "type": "Point",
        "coordinates": [
          36.65240159116961,
          -1.3914295505887755
        ]
      }
    },
    {
      "type": "Feature",
      "properties": {
        "norad_id": 34693,
        "name": "IRIDIUM 33 DEB",
        "group": "iridium-33-debris",
        "lat": -18.24011928303266,
        "lon": 124.75923068431783,
        "alt_km": 494.64907432586733,
        "timestamp": "2025-12-13T07:35:41.890419+00:00",
        "meta_object_name": "IRIDIUM 33 DEB",
        "meta_object_id": "1997-051KQ",
        "meta_epoch": "2025-12-12T21:33:47.712960",
        "meta_mean_motion": 15.27980869,
        "meta_eccentricity": 0.00139664,
        "meta_inclination": 86.3056,
        "meta_ra_of_asc_node": 303.7467,
        "meta_arg_of_pericenter": 52.9772,
        "meta_mean_anomaly": 7.323,
        "meta_ephemeris_type": 0,
        "meta_classification_type": "U",
        "meta_norad_cat_id": 34693,
        "meta_element_set_no": 999,
        "meta_rev_at_epoch": 88917,
        "meta_bstar": 0.0063067576,
        "meta_mean_motion_dot": 0.00176337,
        "meta_mean_motion_ddot": 0,
        "tle_line1": "1 34693U 97051KQ  25346.89846890  .00176337  00000+0  63068-2 0  9990",
        "tle_line2": "2 34693  86.3056 303.7467 0013966  52.9772   7.3230 15.27980869889175"
      },
      "geometry": {
        "type": "Point",
        "coordinates": [
          124.75923068431783,
          -18.24011928303266
        ]
      }
    },
    {
      "type": "Feature",
      "properties": {
        "norad_id": 34696,
        "name": "IRIDIUM 33 DEB",
        "group": "iridium-33-debris",
        "lat": 22.06001138304178,
        "lon": -154.29538042384033,
        "alt_km": 624.7073283731543,
        "timestamp": "2025-12-13T07:35:41.890428+00:00",
        "meta_object_name": "IRIDIUM 33 DEB",
        "meta_object_id": "1997-051KT",
        "meta_epoch": "2025-12-11T02:33:26.982720",
        "meta_mean_motion": 14.64953116,
        "meta_eccentricity": 0.00741481,
        "meta_inclination": 86.185,
        "meta_ra_of_asc_node": 28.2818,
        "meta_arg_of_pericenter": 173.0229,
        "meta_mean_anomaly": 217.0787,
        "meta_ephemeris_type": 0,
        "meta_classification_type": "U",
        "meta_norad_cat_id": 34696,
        "meta_element_set_no": 999,
        "meta_rev_at_epoch": 86649,
        "meta_bstar": 0.0075396538,
        "meta_mean_motion_dot": 0.00042238,
        "meta_mean_motion_ddot": 0,
        "tle_line1": "1 34696U 97051KT  25345.10656230  .00042238  00000+0  75397-2 0  9993",
        "tle_line2": "2 34696  86.1850  28.2818 0074148 173.0229 217.0787 14.64953116866490"
      },
      "geometry": {
        "type": "Point",
        "coordinates": [
          -154.29538042384033,
          22.06001138304178
        ]
      }
    }
  ]
}